GPS BIIR-2  (PRN 13)    
1 24876C 97035A   21129.71090278 -.00000000  00000-0  00000-0 0  1296
2 24876  55.4697 171.4232 0047388  54.3849  89.9434  2.00562948    12
GPS BIIR-4  (PRN 20)    
1 26360C 00025A   21129.71090278 -.00000000  00000-0  00000-0 0  1299
2 26360  53.7478  95.5990 0060313 175.8325 358.7318  2.00792589    12
GPS BIIR-5  (PRN 28)    
1 26407C 00040A   21129.71090278  .00000000  00000-0  00000-0 0  1297
2 26407  55.7521 289.2743 0176305 283.1340 155.3845  2.00489599    12
GPS BIIR-8  (PRN 16)    
1 27663C 03005A   21129.71090278  .00000000  00000-0  00000-0 0  1296
2 27663  55.8045 289.0696 0120942  37.9116 174.3572  2.00561930    14
GPS BIIR-9  (PRN 21)    
1 27704C 03010A   21129.71090278 -.00000000  00000-0  00000-0 0  1299
2 27704  54.8340  39.6951 0243424 294.2965 130.8017  2.00562171    10
GPS BIIR-10 (PRN 22)    
1 28129C 03058A   21129.71090278 -.00000000  00000-0  00000-0 0  1293
2 28129  53.5589  98.2583 0072317 302.9166  66.1100  2.00578791    15
GPS BIIR-11 (PRN 19)    
1 28190C 04009A   21129.71090278  .00000000  00000-0  00000-0 0  1297
2 28190  56.1975 349.9397 0090293 105.1963 262.9721  2.00569303    15
GPS BIIR-13 (PRN 02)    
1 28474C 04045A   21129.71090278 -.00000000  00000-0  00000-0 0  1293
2 28474  55.1693  39.6841 0204729 272.9443  10.8074  2.00564643    13
GPS BIIRM-1 (PRN 17)    
1 28874C 05038A   21129.71090278  .00000000  00000-0  00000-0 0  1299
2 28874  56.2826 347.3513 0135665 270.2519 120.8402  2.00573821    14
GPS BIIRM-2 (PRN 31)    
1 29486C 06042A   21129.71090278  .00000000  00000-0  00000-0 0  1295
2 29486  54.7759 225.3513 0098651  13.6890 290.9664  2.00551070    12
GPS BIIRM-3 (PRN 12)    
1 29601C 06052A   21129.71090278  .00000000  00000-0  00000-0 0  1295
2 29601  55.7995 287.9951 0082335  68.7778 278.9629  2.00555675    14
GPS BIIRM-4 (PRN 15)    
1 32260C 07047A   21129.71090278 -.00000000  00000-0  00000-0 0  1296
2 32260  53.2281 157.2738 0129259  55.6028  69.5573  2.00570717    18
GPS BIIRM-5 (PRN 29)    
1 32384C 07062A   21129.71090278  .00000000  00000-0  00000-0 0  1299
2 32384  56.3889 348.0632 0016225 126.4576 125.7281  2.00567981    19
GPS BIIRM-6 (PRN 07)    
1 32711C 08012A   21129.71090278  .00000000  00000-0  00000-0 0  1299
2 32711  54.5286 224.3783 0150218 226.7122 321.5924  2.00553622    16
GPS BIIRM-8 (PRN 05)    
1 35752C 09043A   21129.71090278 -.00000000  00000-0  00000-0 0  1293
2 35752  54.7860 101.8244 0058879  49.4729 153.1866  2.00540745    14
GPS BIIF-1  (PRN 25)    
1 36585C 10022A   21129.71090278  .00000000  00000-0  00000-0 0  1296
2 36585  55.0742 283.7977 0097250  54.6609 262.7525  2.00568842    13
GPS BIIF-2  (PRN 01)    
1 37753C 11036A   21129.71090278 -.00000000  00000-0  00000-0 0  1291
2 37753  56.3909  44.4651 0106721  47.3701 356.0838  2.00563359    19
GPS BIIF-3  (PRN 24)    
1 38833C 12053A   21129.71090278  .00000000  00000-0  00000-0 0  1290
2 38833  53.5766 219.9101 0109094  41.5334  16.7649  2.00556546    12
GPS BIIF-4  (PRN 27)    
1 39166C 13023A   21129.71090278  .00000000  00000-0  00000-0 0  1298
2 39166  55.9283 343.8790 0092799  34.1811 120.7757  2.00563335    14
GPS BIIF-5  (PRN 30)    
1 39533C 14008A   21129.71090278  .00000000  00000-0  00000-0 0  1290
2 39533  53.6813 225.3772 0052651 202.3476 311.0686  2.00559472    12
GPS BIIF-6  (PRN 06)    
1 39741C 14026A   21129.71090278 -.00000000  00000-0  00000-0 0  1292
2 39741  56.3599  43.9922 0024311 301.0634  11.4490  2.00554506    17
GPS BIIF-7  (PRN 09)    
1 40105C 14045A   21129.71090278 -.00000000  00000-0  00000-0 0  1299
2 40105  54.6218 162.9228 0016408 107.5920 144.8701  2.00550010    10
GPS BIIF-8  (PRN 03)    
1 40294C 14068A   21129.71090278 -.00000000  00000-0  00000-0 0  1293
2 40294  55.5335 103.9219 0033034  44.8520 297.3339  2.00572244    11
GPS BIIF-9  (PRN 26)    
1 40534C 15013A   21129.71090278  .00000000  00000-0  00000-0 0  1290
2 40534  53.9813 281.4069 0058200  15.7102 223.3190  2.00577497    10
GPS BIIF-10 (PRN 08)    
1 40730C 15033A   21129.71090278  .00000000  00000-0  00000-0 0  1290
2 40730  55.4372 342.8990 0063491   0.3320 125.5664  2.00573415    15
GPS BIIF-11 (PRN 10)    
1 41019C 15062A   21129.71090278 -.00000000  00000-0  00000-0 0  1294
2 41019  55.5265 103.7564 0067469 214.9513 236.7127  2.00563815    17
GPS BIIF-12 (PRN 32)    
1 41328C 16007A   21129.71090278 -.00000000  00000-0  00000-0 0  1297
2 41328  54.8500 163.4935 0050949 225.8158 160.4871  2.00564087    11
GPS BIII-1  (PRN 04)    
1 43873C 18109A   21129.71090278 -.00000000  00000-0  00000-0 0  1299
2 43873  55.0311 165.8274 0012903 202.3624  78.3393  2.00554771    14
GPS BIII-2  (PRN 18)    
1 44506C 19056A   21129.71090278 -.00000000  00000-0  00000-0 0  1295
2 44506  55.4571  45.1532 0013317 176.8963   1.4255  2.00565278    16
GPS BIII-3  (PRN 23)    
1 45854C 20041A   21129.71090278 -.00000000  00000-0  00000-0 0  1298
2 45854  55.2391 102.4165 0010519 158.8204 321.9479  2.00566271    11
GPS BIII-4  (PRN 14)    
1 46826C 20078A   21129.71090278  .00000000  00000-0  00000-0 0  1297
2 46826  54.8532 286.4565 0005963 170.4415 282.1975  2.00554842    11
